OBJECT_NAME,OBJECT_ID,EPOCH,MEAN_MOTION,ECCENTRICITY,INCLINATION,RA_OF_ASC_NODE,ARG_OF_PERICENTER,MEAN_ANOMALY,EPHEMERIS_TYPE,CLASSIFICATION_TYPE,NORAD_CAT_ID,ELEMENT_SET_NO,REV_AT_EPOCH,BSTAR,MEAN_MOTION_DOT,MEAN_MOTION_DDOT
FLOCK 4BE-27,2024-149AX,2026-07-05T04:35:27.144960,15.34784182,.00030027,97.3820,268.0543,219.1109,140.9918,0,U,60513,999,10490,.48562141E-3,.16314E-3,0
FLOCK 4BE-9,2024-149AY,2026-07-05T04:57:13.787712,15.41373692,.00027459,97.3786,270.6588,201.4152,158.6980,0,U,60514,999,10509,.63601117E-3,.26526E-3,0
FLOCK 4BE-6,2024-149BA,2026-07-05T04:25:57.473472,15.40109178,.00033878,97.3782,269.9607,205.5099,154.5980,0,U,60516,999,10504,.63429641E-3,.2537E-3,0
FLOCK 4BE-14,2024-149BB,2026-07-05T05:11:35.291616,15.41611170,.00043133,97.3688,270.1461,210.4409,149.6588,0,U,60517,999,10510,.67334675E-3,.28322E-3,0
FLOCK 4BE-1,2024-149BC,2026-07-05T05:07:16.857120,15.43251605,.00040803,97.3773,271.4856,209.2755,150.8265,0,U,60518,999,10515,.6762975E-3,.30054E-3,0
FLOCK 4BE-28,2024-149BD,2026-07-05T04:48:42.831936,15.45617907,.0004155,97.3743,272.2526,204.5537,155.5515,0,U,60519,999,10522,.79717281E-3,.38439E-3,0
IPERDRONE.0,2024-149BE,2026-07-05T05:44:38.374656,15.69633772,.0004223,97.3769,280.3777,189.3549,170.7635,0,U,60520,999,10574,.10814869E-2,.129512E-2,0
TRANSPORTER-11 OBJECT BF,2024-149BF,2026-07-05T06:08:40.878816,15.97305719,.0007549,97.3734,283.7377,236.8381,123.2173,0,U,60521,999,10595,.14409478E-2,.628372E-2,.17200979E-3
CONNECTA IOT-2,2024-149BG,2026-07-05T04:04:53.569344,15.24135281,.0004868,97.3832,264.0445,256.3250,103.7446,0,U,60522,999,10463,.29678778E-3,.715E-4,0
CONNECTA IOT-4,2024-149BJ,2026-07-05T05:48:37.487520,15.42877623,.00051465,97.3791,270.8337,209.1659,150.9302,0,U,60524,999,10511,.73452501E-3,.32257E-3,0
ORESAT0.5,2024-149BK,2026-07-05T04:24:15.133536,15.45812040,.00053463,97.3719,272.4675,197.9622,162.1439,0,U,60525,999,10525,.67266812E-3,.32619E-3,0
DEIMOS,2024-149BL,2026-07-05T05:25:17.535360,15.44916420,.00051548,97.3775,272.6414,204.4561,155.6444,0,U,60526,999,10523,.67044032E-3,.31528E-3,0
CUAVA-2,2024-149BM,2026-07-05T04:33:49.184640,15.36560644,.00059953,97.3718,267.7443,216.2730,143.8108,0,U,60527,999,10493,.59587736E-3,.21228E-3,0
ERNST,2024-149BN,2026-07-05T04:12:11.228544,15.39704828,.00052282,97.3802,270.0347,216.2305,143.8588,0,U,60528,999,10504,.57407113E-3,.22648E-3,0
TORO,2024-149BQ,2026-07-05T03:50:17.041344,14.96496084,.00015971,97.6780,260.4924,95.8888,264.2516,0,U,60530,999,10264,.33347035E-3,.3731E-4,0
LEMU NGE,2024-149BS,2026-07-05T04:33:17.208864,14.95032801,.00009499,97.6831,260.7860,45.4699,314.6600,0,U,60532,999,10264,.27695498E-3,.2974E-4,0
LEMUR-2-STELLA,2024-149BT,2026-07-05T05:09:35.798688,15.12224720,.00013119,97.6730,268.7532,102.7190,257.4187,0,U,60533,999,10322,.11815558E-2,.20389E-3,0
SATELIOT_2,2024-149BU,2026-07-05T05:09:07.479360,14.96430897,.00018103,97.6814,260.8421,88.9458,271.1970,0,U,60534,999,10266,.30732257E-3,.3428E-4,0
NIGHTJAR,2024-149BV,2026-07-05T05:09:07.355808,14.99123365,.00017707,97.6820,262.6683,113.9642,246.1767,0,U,60535,999,14557,.44972804E-3,.541E-4,0
LEMUR-2-MARHISYAM,2024-149BW,2026-07-05T04:50:54.806208,15.11636815,.00029873,97.6873,269.2070,85.7568,274.4003,0,U,60536,999,10320,.10721979E-2,.18192E-3,0
SATELIOT_4,2024-149BX,2026-07-05T05:19:27.306912,14.96736081,.00018086,97.6729,260.3641,32.8426,327.2908,0,U,60537,999,10267,.32293456E-3,.3634E-4,0
PICO-02A021,2024-149BY,2026-07-05T04:54:08.310240,15.03438573,.00033723,97.6753,264.8836,337.7225,22.3853,0,U,60538,999,10244,.61338578E-3,.8294E-4,0
ICEYE-X43,2024-149BZ,2026-07-05T07:27:16.506144,14.99757785,.00073336,97.6816,263.0319,28.4032,331.7590,0,U,60539,999,10283,.45887682E-3,.5616E-4,0
HAWK-10A,2024-149CA,2026-07-05T03:44:03.268896,14.96571991,.0003842,97.6890,261.7582,37.1483,323.0003,0,U,60540,999,10267,.23294E-3,.2594E-4,0
UMBRA-09,2024-149CB,2026-07-05T04:35:25.620864,15.18640889,.00016255,97.6964,273.7112,225.9608,134.1492,0,U,60541,999,10345,.14980184E-2,.31062E-3,0
QPS-SAR-8 (AMATERU-IV),2024-149CC,2026-07-05T05:18:10.435968,15.04334286,.0004389,97.6664,265.2209,67.8726,292.2966,0,U,60542,999,10298,.70373538E-3,.9758E-4,0
ARCTIC WEATHER SATELLITE,2024-149CD,2026-07-05T03:41:30.010848,14.89816387,.00034189,97.6795,256.1054,69.6876,290.4710,0,U,60543,999,10197,.15155001E-3,.1401E-4,0
CAPELLA-15 (ACADIA-5),2024-149CE,2026-07-04T16:30:30.265056,14.92412141,.0003724,97.6734,258.1548,23.2249,336.9138,0,U,60544,999,10246,.70141E-3,.7133E-4,0
HAWK-10B,2024-149CF,2026-07-05T03:43:51.230784,14.96571928,.0006187,97.6812,261.0952,47.2734,312.9007,0,U,60545,999,10267,.23707E-3,.2642E-4,0
