FLOCK 4BE-27            
1 60513U 24149AX  26186.19128640  .00016314  00000+0  48562-3 0  9991
2 60513  97.3820 268.0543 0003002 219.1109 140.9918 15.34784182104901
FLOCK 4BE-9             
1 60514U 24149AY  26186.20640958  .00026526  00000+0  63601-3 0  9992
2 60514  97.3786 270.6588 0002745 201.4152 158.6980 15.41373692105090
FLOCK 4BE-6             
1 60516U 24149BA  26186.18469298  .00025370  00000+0  63430-3 0  9993
2 60516  97.3782 269.9607 0003387 205.5099 154.5980 15.40109178105044
FLOCK 4BE-14            
1 60517U 24149BB  26186.21638069  .00028322  00000+0  67335-3 0  9990
2 60517  97.3688 270.1461 0004313 210.4409 149.6588 15.41611170105109
FLOCK 4BE-1             
1 60518U 24149BC  26186.21338955  .00030054  00000+0  67630-3 0  9995
2 60518  97.3773 271.4856 0004080 209.2755 150.8265 15.43251605105154
FLOCK 4BE-28            
1 60519U 24149BD  26186.20049574  .00038439  00000+0  79717-3 0  9995
2 60519  97.3743 272.2526 0004155 204.5537 155.5515 15.45617907105225
IPERDRONE.0             
1 60520U 24149BE  26186.23933304  .00129512  00000+0  10815-2 0  9999
2 60520  97.3769 280.3777 0004223 189.3549 170.7635 15.69633772105745
TRANSPORTER-11 OBJECT BF
1 60521U 24149BF  26186.25602869  .00628372  17201-3  14409-2 0  9997
2 60521  97.3734 283.7377 0007549 236.8381 123.2173 15.97305719105958
CONNECTA IOT-2          
1 60522U 24149BG  26186.17006446  .00007150  00000+0  29679-3 0  9994
2 60522  97.3832 264.0445 0004868 256.3250 103.7446 15.24135281104634
CONNECTA IOT-4          
1 60524U 24149BJ  26186.24210055  .00032257  00000+0  73453-3 0  9992
2 60524  97.3791 270.8337 0005146 209.1659 150.9302 15.42877623105116
ORESAT0.5               
1 60525U 24149BK  26186.18350849  .00032619  00000+0  67267-3 0  9990
2 60525  97.3719 272.4675 0005346 197.9622 162.1439 15.45812040105252
DEIMOS                  
1 60526U 24149BL  26186.22589740  .00031528  00000+0  67044-3 0  9991
2 60526  97.3775 272.6414 0005154 204.4561 155.6444 15.44916420105238
CUAVA-2                 
1 60527U 24149BM  26186.19015260  .00021228  00000+0  59588-3 0  9999
2 60527  97.3718 267.7443 0005995 216.2730 143.8108 15.36560644104931
ERNST                   
1 60528U 24149BN  26186.17512996  .00022648  00000+0  57407-3 0  9991
2 60528  97.3802 270.0347 0005228 216.2305 143.8588 15.39704828105045
TORO                    
1 60530U 24149BQ  26186.15991946  .00003731  00000+0  33347-3 0  9997
2 60530  97.6780 260.4924 0001597  95.8888 264.2516 14.96496084102648
LEMU NGE                
1 60532U 24149BS  26186.18978251  .00002974  00000+0  27695-3 0  9993
2 60532  97.6831 260.7860 0000949  45.4699 314.6600 14.95032801102646
LEMUR-2-STELLA          
1 60533U 24149BT  26186.21499767  .00020389  00000+0  11816-2 0  9995
2 60533  97.6730 268.7532 0001311 102.7190 257.4187 15.12224720103228
SATELIOT_2              
1 60534U 24149BU  26186.21466990  .00003428  00000+0  30732-3 0  9992
2 60534  97.6814 260.8421 0001810  88.9458 271.1970 14.96430897102663
NIGHTJAR                
1 60535U 24149BV  26186.21466847  .00005410  00000+0  44973-3 0  9999
2 60535  97.6820 262.6683 0001770 113.9642 246.1767 14.99123365145575
LEMUR-2-MARHISYAM       
1 60536U 24149BW  26186.20202322  .00018192  00000+0  10722-2 0  9990
2 60536  97.6873 269.2070 0002987  85.7568 274.4003 15.11636815103206
SATELIOT_4              
1 60537U 24149BX  26186.22184383  .00003634  00000+0  32293-3 0  9992
2 60537  97.6729 260.3641 0001808  32.8426 327.2908 14.96736081102679
PICO-02A021             
1 60538U 24149BY  26186.20426285  .00008294  00000+0  61339-3 0  9991
2 60538  97.6753 264.8836 0003372 337.7225  22.3853 15.03438573102445
ICEYE-X43               
1 60539U 24149BZ  26186.31060771  .00005616  00000+0  45888-3 0  9994
2 60539  97.6816 263.0319 0007333  28.4032 331.7590 14.99757785102835
HAWK-10A                
1 60540U 24149CA  26186.15559340  .00002594  00000+0  23294-3 0  9992
2 60540  97.6890 261.7582 0003842  37.1483 323.0003 14.96571991102679
UMBRA-09                
1 60541U 24149CB  26186.19126876  .00031062  00000+0  14980-2 0  9994
2 60541  97.6964 273.7112 0001625 225.9608 134.1492 15.18640889103455
QPS-SAR-8 (AMATERU-IV)  
1 60542U 24149CC  26186.22095412  .00009758  00000+0  70374-3 0  9997
2 60542  97.6664 265.2209 0004389  67.8726 292.2966 15.04334286102985
ARCTIC WEATHER SATELLITE
1 60543U 24149CD  26186.15381957  .00001401  00000+0  15155-3 0  9995
2 60543  97.6795 256.1054 0003418  69.6876 290.4710 14.89816387101970
CAPELLA-15 (ACADIA-5)   
1 60544U 24149CE  26185.68785030  .00007133  00000+0  70141-3 0  9997
2 60544  97.6734 258.1548 0003724  23.2249 336.9138 14.92412141102463
HAWK-10B                
1 60545U 24149CF  26186.15545407  .00002642  00000+0  23707-3 0  9999
2 60545  97.6812 261.0952 0006187  47.2734 312.9007 14.96571928102679
